STARLINK-5905
1 55986U 23042A   26090.83335647  .01441143  00000+0  55021-1 0  9991
2 55986  42.9989 294.6437 0001300 267.8545 139.3710 15.23013313  5654
STARLINK-6104
1 56127U 23046AM  26090.83335647  .00897098  00000+0  34691-1 0  9996
2 56127  43.0012  24.4666 0000870 256.4425 220.7729 15.22998721  5767
STARLINK-5707
1 56879U 23083D   26090.83335647  .00915563  00000+0  35326-1 0  9995
2 56879  42.9986 320.2970 0001196 260.1073 152.9136 15.23021154  5819
